{
    "mercury": {
        "semimajor_axis": 0.3870981978809618,
        "eccentricity": 0.2056348348170390,
        "inclination": 7.003581429160608,
        "mean_anomaly": 238.2419396674838,
        "argument_of_perihelion": 29.19120826459077,
        "ascending_node": 48.30099247760661,
        "mean_daily_motion": 4.092346380325095,
        "epoch_jd": 2460181.5,
        "name": "Mercury"
    },
    "venus": {
        "semimajor_axis": 0.7233394993783024,
        "eccentricity": 0.006751921665096733,
        "inclination": 3.394342322362550,
        "mean_anomaly": 207.1825648806795,
        "argument_of_perihelion": 54.98273517821931,
        "ascending_node": 76.61383887174399,
        "mean_daily_motion": 1.602106319741148,
        "epoch_jd": 2460181.5,
        "name": "Venus"
    },
    "mars": {
        "semimajor_axis": 1.523697529195890,
        "eccentricity": 0.09334416606027193,
        "inclination": 1.847919327404603,
        "mean_anomaly": 225.1309151389929,
        "argument_of_perihelion": 286.6396041587725,
        "ascending_node": 49.48984370080841,
        "mean_daily_motion": 0.5240298172661463,
        "epoch_jd": 2460181.5,
        "name": "Mars"
    },
    "jupiter": {
        "semimajor_axis": 5.203501815132350,
        "eccentricity": 0.04847073928792924,
        "inclination": 1.303440438605707,
        "mean_anomaly": 17.77662194168190,
        "argument_of_perihelion": 273.6755601807570,
        "ascending_node": 100.5313644889547,
        "mean_daily_motion": 0.08307449251445106,
        "epoch_jd": 2460181.5,
        "name": "Jupiter"
    },
    "saturn": {
        "semimajor_axis": 9.571070445959165,
        "eccentricity": 0.05431260760499564,
        "inclination": 2.484278163457603,
        "mean_anomaly": 249.9277158732781,
        "argument_of_perihelion": 335.6768377854934,
        "ascending_node": 113.5533514314662,
        "mean_daily_motion": 0.03329088647694878,
        "epoch_jd": 2460181.5,
        "name": "Saturn"
    },
    "uranus": {
        "semimajor_axis": 19.29708529727467,
        "eccentricity": 0.04413270216751462,
        "inclination": 0.7719143108079569,
        "mean_anomaly": 249.0330903603471,
        "argument_of_perihelion": 91.37491162290534,
        "ascending_node": 74.03695443119472,
        "mean_daily_motion": 0.01162722238867712,
        "epoch_jd": 2460181.5,
        "name": "Uranus"
    },
    "neptune": {
        "semimajor_axis": 30.28612737025333,
        "eccentricity": 0.01469529962063434,
        "inclination": 1.765412500455516,
        "mean_anomaly": 328.8624737894285,
        "argument_of_perihelion": 256.1860270984464,
        "ascending_node": 131.6333867463142,
        "mean_daily_motion": 0.005913568620118722,
        "epoch_jd": 2460181.5,
        "name": "Neptune"
    }
}
